{
  "type": "FeatureCollection",
  "features": [
    {
      "type": "Feature",
      "properties": {
        "norad_id": 34815,
        "name": "COSMOS 2251 DEB",
        "group": "cosmos-2251-debris",
        "lat": -27.612248646014297,
        "lon": 55.36544441714395,
        "alt_km": 636.3914439182363,
        "timestamp": "2025-12-20T09:36:02.044366+00:00",
        "meta_object_name": "COSMOS 2251 DEB",
        "meta_object_id": "1993-036ABE",
        "meta_epoch": "2025-12-20T02:09:26.964288",
        "meta_mean_motion": 14.78391342,
        "meta_eccentricity": 0.0058811,
        "meta_inclination": 74.0443,
        "meta_ra_of_asc_node": 227.3677,
        "meta_arg_of_pericenter": 294.92,
        "meta_mean_anomaly": 64.587,
        "meta_ephemeris_type": 0,
        "meta_classification_type": "U",
        "meta_norad_cat_id": 34815,
        "meta_element_set_no": 999,
        "meta_rev_at_epoch": 88736,
        "meta_bstar": 0.00047092,
        "meta_mean_motion_dot": 3.495e-05,
        "meta_mean_motion_ddot": 0,
        "tle_line1": "1 34815U 93036ABE 25354.08989542  .00003495  00000+0  47092-3 0  9991",
        "tle_line2": "2 34815  74.0443 227.3677 0058811 294.9200  64.5870 14.78391342887362"
      },
      "geometry": {
        "type": "Point",
        "coordinates": [
          55.36544441714395,
          -27.612248646014297
        ]
      }
    },
    {
      "type": "Feature",
      "properties": {
        "norad_id": 34816,
        "name": "COSMOS 2251 DEB",
        "group": "cosmos-2251-debris",
        "lat": 73.8773930291917,
        "lon": -139.59454252207286,
        "alt_km": 1090.6854391009347,
        "timestamp": "2025-12-20T09:36:02.044376+00:00",
        "meta_object_name": "COSMOS 2251 DEB",
        "meta_object_id": "1993-036ABF",
        "meta_epoch": "2025-12-19T19:45:52.299072",
        "meta_mean_motion": 13.58341455,
        "meta_eccentricity": 0.03732066,
        "meta_inclination": 73.8867,
        "meta_ra_of_asc_node": 131.5634,
        "meta_arg_of_pericenter": 194.8145,
        "meta_mean_anomaly": 321.2377,
        "meta_ephemeris_type": 0,
        "meta_classification_type": "U",
        "meta_norad_cat_id": 34816,
        "meta_element_set_no": 999,
        "meta_rev_at_epoch": 82879,
        "meta_bstar": 0.00094697694,
        "meta_mean_motion_dot": 1.062e-05,
        "meta_mean_motion_ddot": 0,
        "tle_line1": "1 34816U 93036ABF 25353.82352198  .00001062  00000+0  94698-3 0  9996",
        "tle_line2": "2 34816  73.8867 131.5634 0373206 194.8145 321.2377 13.58341455828797"
      },
      "geometry": {
        "type": "Point",
        "coordinates": [
          -139.59454252207286,
          73.8773930291917
        ]
      }
    },
    {
      "type": "Feature",
      "properties": {
        "norad_id": 34818,
        "name": "COSMOS 2251 DEB",
        "group": "cosmos-2251-debris",
        "lat": 61.05718314027445,
        "lon": -45.971955811905836,
        "alt_km": 755.8683989036163,
        "timestamp": "2025-12-20T09:36:02.044386+00:00",
        "meta_object_name": "COSMOS 2251 DEB",
        "meta_object_id": "1993-036ABH",
        "meta_epoch": "2025-12-18T20:48:35.786304",
        "meta_mean_motion": 14.3697434,
        "meta_eccentricity": 0.00244833,
        "meta_inclination": 74.036,
        "meta_ra_of_asc_node": 285.6723,
        "meta_arg_of_pericenter": 359.9167,
        "meta_mean_anomaly": 58.515,
        "meta_ephemeris_type": 0,
        "meta_classification_type": "U",
        "meta_norad_cat_id": 34818,
        "meta_element_set_no": 999,
        "meta_rev_at_epoch": 87458,
        "meta_bstar": 0.00016248256,
        "meta_mean_motion_dot": 4.57e-06,
        "meta_mean_motion_ddot": 0,
        "tle_line1": "1 34818U 93036ABH 25352.86708086  .00000457  00000+0  16248-3 0  9994",
        "tle_line2": "2 34818  74.0360 285.6723 0024483 359.9167  58.5150 14.36974340874587"
      },
      "geometry": {
        "type": "Point",
        "coordinates": [
          -45.971955811905836,
          61.05718314027445
        ]
      }
    },
    {
      "type": "Feature",
      "properties": {
        "norad_id": 34819,
        "name": "COSMOS 2251 DEB",
        "group": "cosmos-2251-debris",
        "lat": 8.202289985297588,
        "lon": 130.29974663167252,
        "alt_km": 690.681191556454,
        "timestamp": "2025-12-20T09:36:02.044397+00:00",
        "meta_object_name": "COSMOS 2251 DEB",
        "meta_object_id": "1993-036ABJ",
        "meta_epoch": "2025-12-19T10:51:51.426720",
        "meta_mean_motion": 14.64061618,
        "meta_eccentricity": 0.0015559,
        "meta_inclination": 74.0175,
        "meta_ra_of_asc_node": 129.7528,
        "meta_arg_of_pericenter": 224.5883,
        "meta_mean_anomaly": 192.9027,
        "meta_ephemeris_type": 0,
        "meta_classification_type": "U",
        "meta_norad_cat_id": 34819,
        "meta_element_set_no": 999,
        "meta_rev_at_epoch": 88327,
        "meta_bstar": 0.0010599,
        "meta_mean_motion_dot": 5.546e-05,
        "meta_mean_motion_ddot": 0,
        "tle_line1": "1 34819U 93036ABJ 25353.45267855  .00005546  00000+0  10599-2 0  9991",
        "tle_line2": "2 34819  74.0175 129.7528 0015559 224.5883 192.9027 14.64061618883277"
      },
      "geometry": {
        "type": "Point",
        "coordinates": [
          130.29974663167252,
          8.202289985297588
        ]
      }
    },
    {
      "type": "Feature",
      "properties": {
        "norad_id": 34823,
        "name": "COSMOS 2251 DEB",
        "group": "cosmos-2251-debris",
        "lat": 13.645968410044677,
        "lon": -96.20333588995928,
        "alt_km": 601.1988519638398,
        "timestamp": "2025-12-20T09:36:02.044407+00:00",
        "meta_object_name": "COSMOS 2251 DEB",
        "meta_object_id": "1993-036ABN",
        "meta_epoch": "2025-12-19T06:26:19.930272",
        "meta_mean_motion": 14.54970377,
        "meta_eccentricity": 0.0154255,
        "meta_inclination": 74.0426,
        "meta_ra_of_asc_node": 89.9214,
        "meta_arg_of_pericenter": 173.0866,
        "meta_mean_anomaly": 187.2478,
        "meta_ephemeris_type": 0,
        "meta_classification_type": "U",
        "meta_norad_cat_id": 34823,
        "meta_element_set_no": 999,
        "meta_rev_at_epoch": 88476,
        "meta_bstar": 0.00043216,
        "meta_mean_motion_dot": 2.15e-05,
        "meta_mean_motion_ddot": 0,
        "tle_line1": "1 34823U 93036ABN 25353.26828623  .00002150  00000+0  43216-3 0  9992",
        "tle_line2": "2 34823  74.0426  89.9214 0154255 173.0866 187.2478 14.54970377884768"
      },
      "geometry": {
        "type": "Point",
        "coordinates": [
          -96.20333588995928,
          13.645968410044677
        ]
      }
    },
    {
      "type": "Feature",
      "properties": {
        "norad_id": 34845,
        "name": "COSMOS 2251 DEB",
        "group": "cosmos-2251-debris",
        "lat": -59.3454205242709,
        "lon": -17.04414553802696,
        "alt_km": 735.6380552937981,
        "timestamp": "2025-12-20T09:36:02.044417+00:00",
        "meta_object_name": "COSMOS 2251 DEB",
        "meta_object_id": "1993-036ABP",
        "meta_epoch": "2025-12-19T17:31:51.884832",
        "meta_mean_motion": 14.45872035,
        "meta_eccentricity": 0.00225932,
        "meta_inclination": 74.0244,
        "meta_ra_of_asc_node": 135.3011,
        "meta_arg_of_pericenter": 295.1391,
        "meta_mean_anomaly": 64.7423,
        "meta_ephemeris_type": 0,
        "meta_classification_type": "U",
        "meta_norad_cat_id": 34845,
        "meta_element_set_no": 999,
        "meta_rev_at_epoch": 87567,
        "meta_bstar": 0.00020260782,
        "meta_mean_motion_dot": 6.95e-06,
        "meta_mean_motion_ddot": 0,
        "tle_line1": "1 34845U 93036ABP 25353.73046163  .00000695  00000+0  20261-3 0  9996",
        "tle_line2": "2 34845  74.0244 135.3011 0022593 295.1391  64.7423 14.45872035875670"
      },
      "geometry": {
        "type": "Point",
        "coordinates": [
          -17.04414553802696,
          -59.3454205242709
        ]
      }
    },
    {
      "type": "Feature",
      "properties": {
        "norad_id": 34846,
        "name": "COSMOS 2251 DEB",
        "group": "cosmos-2251-debris",
        "lat": -38.54550577920623,
        "lon": 80.6381220810425,
        "alt_km": 741.4870310905007,
        "timestamp": "2025-12-20T09:36:02.044427+00:00",
        "meta_object_name": "COSMOS 2251 DEB",
        "meta_object_id": "1993-036ABQ",
        "meta_epoch": "2025-12-19T20:58:13.992384",
        "meta_mean_motion": 14.47252476,
        "meta_eccentricity": 0.0026208,
        "meta_inclination": 74.0307,
        "meta_ra_of_asc_node": 248.4339,
        "meta_arg_of_pericenter": 313.9402,
        "meta_mean_anomaly": 45.9594,
        "meta_ephemeris_type": 0,
        "meta_classification_type": "U",
        "meta_norad_cat_id": 34846,
        "meta_element_set_no": 999,
        "meta_rev_at_epoch": 87507,
        "meta_bstar": 0.0004999,
        "meta_mean_motion_dot": 1.808e-05,
        "meta_mean_motion_ddot": 0,
        "tle_line1": "1 34846U 93036ABQ 25353.87377306  .00001808  00000+0  49990-3 0  9995",
        "tle_line2": "2 34846  74.0307 248.4339 0026208 313.9402  45.9594 14.47252476875076"
      },
      "geometry": {
        "type": "Point",
        "coordinates": [
          80.6381220810425,
          -38.54550577920623
        ]
      }
    }
  ]
}